STARLINK-34100          
1 64385U 25127R   26063.45760040  .00048105  00000+0  17439-2 0  9999
2 64385  43.0012 209.6138 0001035 215.0963 144.9820 15.27623612 41617
STARLINK-34269          
1 64386U 25127S   26063.41132964  .00041845  00000+0  15200-2 0  9992
2 64386  42.9974 209.2534 0000776 230.1935 129.8849 15.27613972 41663
STARLINK-34351          
1 64387U 25127T   26063.73696883  .00035571  00000+0  12944-2 0  9994
2 64387  43.0007 207.3954 0002015 258.3549 101.7077 15.27617658 41712
STARLINK-34198          
1 64388U 25127U   26063.80106783  .00031576  00000+0  11506-2 0  9992
2 64388  43.0023 207.0255 0002618 280.2049  79.8507 15.27619186 41722
STARLINK-34279          
1 64389U 25127V   26063.73328253  .00032438  00000+0  11831-2 0  9992
2 64389  43.0011 208.2436 0001728 274.7889  85.2765 15.27579820 41700
STARLINK-34292          
1 64390U 25127W   26064.10374040  .00039266  00000+0  14279-2 0  9996
2 64390  43.0023 205.8598 0001164 276.2397  83.8322 15.27600922 41769
STARLINK-34278          
1 64391U 25127X   26063.41389962  .00033106  00000+0  12063-2 0  9995
2 64391  42.9973 209.2705 0000943 192.8525 167.2303 15.27604520 41663
STARLINK-33802          
1 64392U 25127Y   26063.78836851  .00041625  00000+0  15119-2 0  9990
2 64392  43.0055 207.7981 0002712 269.2437  90.8104 15.27615247 41762
STARLINK-34419          
1 64412U 25129A   26064.21763450  .00006160  00000+0  52350-3 0  9992
2 64412  70.0010  85.8766 0002987 261.4084  98.6737 14.98339706 40631
STARLINK-34275          
1 64413U 25129B   26064.26369261  .00005918  00000+0  50308-3 0  9991
2 64413  70.0002  85.6454 0003411 265.1036  94.9734 14.98349851 40623
STARLINK-34225          
1 64414U 25129C   26064.22598201  .00004266  00000+0  36503-3 0  9992
2 64414  70.0011  85.9096 0003148 260.1841  99.8962 14.98338190 40615
STARLINK-34422          
1 64415U 25129D   26064.33863989  .00005622  00000+0  47852-3 0  9999
2 64415  69.9999  85.5068 0003431 270.8441  89.2325 14.98335757 40579
STARLINK-34514          
1 64416U 25129E   26064.23430540  .00005195  00000+0  44275-3 0  9993
2 64416  70.0006  85.5453 0003349 269.9742  90.1033 14.98335542 40626
STARLINK-34487          
1 64417U 25129F   26064.23849730  .00009103  00000+0  76944-3 0  9990
2 64417  70.0004  85.5583 0003734 271.0281  89.0450 14.98340795 40568
STARLINK-34461          
1 64418U 25129G   26064.22197686  .00005008  00000+0  42707-3 0  9996
2 64418  70.0005  85.8983 0002812 263.9536  96.1303 14.98343725 40614
STARLINK-34512          
1 64419U 25129H   26064.20929060  .00005117  00000+0  43620-3 0  9990
2 64419  70.0001  85.8513 0003111 270.8852  89.1950 14.98339117 40554
