[{"OBJECT_NAME":"STARLINK-34100","OBJECT_ID":"2025-127R","EPOCH":"2026-03-04T10:58:56.674560","MEAN_MOTION":15.27623612,"ECCENTRICITY":0.00010354,"INCLINATION":43.0012,"RA_OF_ASC_NODE":209.6138,"ARG_OF_PERICENTER":215.0963,"MEAN_ANOMALY":144.982,"EPHEMERIS_TYPE":0,"CLASSIFICATION_TYPE":"U","NORAD_CAT_ID":64385,"ELEMENT_SET_NO":999,"REV_AT_EPOCH":4161,"BSTAR":0.0017439442,"MEAN_MOTION_DOT":0.00048105,"MEAN_MOTION_DDOT":0},{"OBJECT_NAME":"STARLINK-34269","OBJECT_ID":"2025-127S","EPOCH":"2026-03-04T09:52:18.880896","MEAN_MOTION":15.27613972,"ECCENTRICITY":7.76e-5,"INCLINATION":42.9974,"RA_OF_ASC_NODE":209.2534,"ARG_OF_PERICENTER":230.1935,"MEAN_ANOMALY":129.8849,"EPHEMERIS_TYPE":0,"CLASSIFICATION_TYPE":"U","NORAD_CAT_ID":64386,"ELEMENT_SET_NO":999,"REV_AT_EPOCH":4166,"BSTAR":0.0015199595,"MEAN_MOTION_DOT":0.00041845,"MEAN_MOTION_DDOT":0},{"OBJECT_NAME":"STARLINK-34351","OBJECT_ID":"2025-127T","EPOCH":"2026-03-04T17:41:14.106912","MEAN_MOTION":15.27617658,"ECCENTRICITY":0.00020156,"INCLINATION":43.0007,"RA_OF_ASC_NODE":207.3954,"ARG_OF_PERICENTER":258.3549,"MEAN_ANOMALY":101.7077,"EPHEMERIS_TYPE":0,"CLASSIFICATION_TYPE":"U","NORAD_CAT_ID":64387,"ELEMENT_SET_NO":999,"REV_AT_EPOCH":4171,"BSTAR":0.0012944159,"MEAN_MOTION_DOT":0.00035571,"MEAN_MOTION_DDOT":0},{"OBJECT_NAME":"STARLINK-34198","OBJECT_ID":"2025-127U","EPOCH":"2026-03-04T19:13:32.260512","MEAN_MOTION":15.27619186,"ECCENTRICITY":0.00026189,"INCLINATION":43.0023,"RA_OF_ASC_NODE":207.0255,"ARG_OF_PERICENTER":280.2049,"MEAN_ANOMALY":79.8507,"EPHEMERIS_TYPE":0,"CLASSIFICATION_TYPE":"U","NORAD_CAT_ID":64388,"ELEMENT_SET_NO":999,"REV_AT_EPOCH":4172,"BSTAR":0.0011506408,"MEAN_MOTION_DOT":0.00031576,"MEAN_MOTION_DDOT":0},{"OBJECT_NAME":"STARLINK-34279","OBJECT_ID":"2025-127V","EPOCH":"2026-03-04T17:35:55.610592","MEAN_MOTION":15.2757982,"ECCENTRICITY":0.0001728,"INCLINATION":43.0011,"RA_OF_ASC_NODE":208.2436,"ARG_OF_PERICENTER":274.7889,"MEAN_ANOMALY":85.2765,"EPHEMERIS_TYPE":0,"CLASSIFICATION_TYPE":"U","NORAD_CAT_ID":64389,"ELEMENT_SET_NO":999,"REV_AT_EPOCH":4170,"BSTAR":0.0011831167,"MEAN_MOTION_DOT":0.00032438,"MEAN_MOTION_DDOT":0},{"OBJECT_NAME":"STARLINK-34292","OBJECT_ID":"2025-127W","EPOCH":"2026-03-05T02:29:23.170560","MEAN_MOTION":15.27600922,"ECCENTRICITY":0.00011648,"INCLINATION":43.0023,"RA_OF_ASC_NODE":205.8598,"ARG_OF_PERICENTER":276.2397,"MEAN_ANOMALY":83.8322,"EPHEMERIS_TYPE":0,"CLASSIFICATION_TYPE":"U","NORAD_CAT_ID":64390,"ELEMENT_SET_NO":999,"REV_AT_EPOCH":4176,"BSTAR":0.0014279411,"MEAN_MOTION_DOT":0.00039266,"MEAN_MOTION_DDOT":0},{"OBJECT_NAME":"STARLINK-34278","OBJECT_ID":"2025-127X","EPOCH":"2026-03-04T09:56:00.927168","MEAN_MOTION":15.2760452,"ECCENTRICITY":9.43e-5,"INCLINATION":42.9973,"RA_OF_ASC_NODE":209.2705,"ARG_OF_PERICENTER":192.8525,"MEAN_ANOMALY":167.2303,"EPHEMERIS_TYPE":0,"CLASSIFICATION_TYPE":"U","NORAD_CAT_ID":64391,"ELEMENT_SET_NO":999,"REV_AT_EPOCH":4166,"BSTAR":0.0012062879,"MEAN_MOTION_DOT":0.00033106,"MEAN_MOTION_DDOT":0},{"OBJECT_NAME":"STARLINK-33802","OBJECT_ID":"2025-127Y","EPOCH":"2026-03-04T18:55:15.039264","MEAN_MOTION":15.27615247,"ECCENTRICITY":0.00027125,"INCLINATION":43.0055,"RA_OF_ASC_NODE":207.7981,"ARG_OF_PERICENTER":269.2437,"MEAN_ANOMALY":90.8104,"EPHEMERIS_TYPE":0,"CLASSIFICATION_TYPE":"U","NORAD_CAT_ID":64392,"ELEMENT_SET_NO":999,"REV_AT_EPOCH":4176,"BSTAR":0.0015119247,"MEAN_MOTION_DOT":0.00041625,"MEAN_MOTION_DDOT":0},{"OBJECT_NAME":"STARLINK-34419","OBJECT_ID":"2025-129A","EPOCH":"2026-03-05T05:13:23.620800","MEAN_MOTION":14.98339706,"ECCENTRICITY":0.00029879,"INCLINATION":70.001,"RA_OF_ASC_NODE":85.8766,"ARG_OF_PERICENTER":261.4084,"MEAN_ANOMALY":98.6737,"EPHEMERIS_TYPE":0,"CLASSIFICATION_TYPE":"U","NORAD_CAT_ID":64412,"ELEMENT_SET_NO":999,"REV_AT_EPOCH":4063,"BSTAR":0.00052349653,"MEAN_MOTION_DOT":6.16e-5,"MEAN_MOTION_DDOT":0},{"OBJECT_NAME":"STARLINK-34275","OBJECT_ID":"2025-129B","EPOCH":"2026-03-05T06:19:43.041504","MEAN_MOTION":14.98349851,"ECCENTRICITY":0.00034111,"INCLINATION":70.0002,"RA_OF_ASC_NODE":85.6454,"ARG_OF_PERICENTER":265.1036,"MEAN_ANOMALY":94.9734,"EPHEMERIS_TYPE":0,"CLASSIFICATION_TYPE":"U","NORAD_CAT_ID":64413,"ELEMENT_SET_NO":999,"REV_AT_EPOCH":4062,"BSTAR":0.00050307603,"MEAN_MOTION_DOT":5.918e-5,"MEAN_MOTION_DDOT":0},{"OBJECT_NAME":"STARLINK-34225","OBJECT_ID":"2025-129C","EPOCH":"2026-03-05T05:25:24.845664","MEAN_MOTION":14.9833819,"ECCENTRICITY":0.00031484,"INCLINATION":70.0011,"RA_OF_ASC_NODE":85.9096,"ARG_OF_PERICENTER":260.1841,"MEAN_ANOMALY":99.8962,"EPHEMERIS_TYPE":0,"CLASSIFICATION_TYPE":"U","NORAD_CAT_ID":64414,"ELEMENT_SET_NO":999,"REV_AT_EPOCH":4061,"BSTAR":0.00036503354,"MEAN_MOTION_DOT":4.266e-5,"MEAN_MOTION_DDOT":0},{"OBJECT_NAME":"STARLINK-34422","OBJECT_ID":"2025-129D","EPOCH":"2026-03-05T08:07:38.486496","MEAN_MOTION":14.98335757,"ECCENTRICITY":0.00034313,"INCLINATION":69.9999,"RA_OF_ASC_NODE":85.5068,"ARG_OF_PERICENTER":270.8441,"MEAN_ANOMALY":89.2325,"EPHEMERIS_TYPE":0,"CLASSIFICATION_TYPE":"U","NORAD_CAT_ID":64415,"ELEMENT_SET_NO":999,"REV_AT_EPOCH":4057,"BSTAR":0.00047852259,"MEAN_MOTION_DOT":5.622e-5,"MEAN_MOTION_DDOT":0},{"OBJECT_NAME":"STARLINK-34514","OBJECT_ID":"2025-129E","EPOCH":"2026-03-05T05:37:23.986560","MEAN_MOTION":14.98335542,"ECCENTRICITY":0.00033497,"INCLINATION":70.0006,"RA_OF_ASC_NODE":85.5453,"ARG_OF_PERICENTER":269.9742,"MEAN_ANOMALY":90.1033,"EPHEMERIS_TYPE":0,"CLASSIFICATION_TYPE":"U","NORAD_CAT_ID":64416,"ELEMENT_SET_NO":999,"REV_AT_EPOCH":4062,"BSTAR":0.00044275034,"MEAN_MOTION_DOT":5.195e-5,"MEAN_MOTION_DDOT":0},{"OBJECT_NAME":"STARLINK-34487","OBJECT_ID":"2025-129F","EPOCH":"2026-03-05T05:43:26.166720","MEAN_MOTION":14.98340795,"ECCENTRICITY":0.00037349,"INCLINATION":70.0004,"RA_OF_ASC_NODE":85.5583,"ARG_OF_PERICENTER":271.0281,"MEAN_ANOMALY":89.045,"EPHEMERIS_TYPE":0,"CLASSIFICATION_TYPE":"U","NORAD_CAT_ID":64417,"ELEMENT_SET_NO":999,"REV_AT_EPOCH":4056,"BSTAR":0.00076943841,"MEAN_MOTION_DOT":9.103e-5,"MEAN_MOTION_DDOT":0},{"OBJECT_NAME":"STARLINK-34461","OBJECT_ID":"2025-129G","EPOCH":"2026-03-05T05:19:38.800704","MEAN_MOTION":14.98343725,"ECCENTRICITY":0.00028124,"INCLINATION":70.0005,"RA_OF_ASC_NODE":85.8983,"ARG_OF_PERICENTER":263.9536,"MEAN_ANOMALY":96.1303,"EPHEMERIS_TYPE":0,"CLASSIFICATION_TYPE":"U","NORAD_CAT_ID":64418,"ELEMENT_SET_NO":999,"REV_AT_EPOCH":4061,"BSTAR":0.00042707492,"MEAN_MOTION_DOT":5.008e-5,"MEAN_MOTION_DDOT":0},{"OBJECT_NAME":"STARLINK-34512","OBJECT_ID":"2025-129H","EPOCH":"2026-03-05T05:01:22.707840","MEAN_MOTION":14.98339117,"ECCENTRICITY":0.00031115,"INCLINATION":70.0001,"RA_OF_ASC_NODE":85.8513,"ARG_OF_PERICENTER":270.8852,"MEAN_ANOMALY":89.195,"EPHEMERIS_TYPE":0,"CLASSIFICATION_TYPE":"U","NORAD_CAT_ID":64419,"ELEMENT_SET_NO":999,"REV_AT_EPOCH":4055,"BSTAR":0.0004361954,"MEAN_MOTION_DOT":5.117e-5,"MEAN_MOTION_DDOT":0}]
